{
  "norad_id": 66016,
  "name": "STARLINK-35243",
  "history": [
    {
      "epoch": "2026-03-28T18:32:51.819936Z",
      "apogee_km": 476.04362219575887,
      "perigee_km": 474.2656042196277,
      "latitude_deg": -1.4675506138247912e-05,
      "longitude_deg": -88.88159132254466,
      "height_km": 476.1005821407129,
      "semi_major_axis_km": 6853.2916132076925,
      "eccentricity": 0.00012972,
      "inclination_deg": 53.1606,
      "raan_deg": 15.5228,
      "arg_perigee_deg": 93.0857,
      "mean_anomaly_deg": 267.0292,
      "mean_motion_rev_day": 15.30220248
    },
    {
      "epoch": "2026-03-29T03:57:10.946592Z",
      "apogee_km": 475.831232241233,
      "perigee_km": 474.51950825356744,
      "latitude_deg": -1.405663336604829e-06,
      "longitude_deg": 127.83306168094059,
      "height_km": 476.0205095123558,
      "semi_major_axis_km": 6853.3123702474,
      "eccentricity": 9.57e-05,
      "inclination_deg": 53.1604,
      "raan_deg": 13.7034,
      "arg_perigee_deg": 85.3288,
      "mean_anomaly_deg": 274.7822,
      "mean_motion_rev_day": 15.30213296
    },
    {
      "epoch": "2026-03-30T01:53:56.014656Z",
      "apogee_km": 476.1052482234081,
      "perigee_km": 474.27815079211996,
      "latitude_deg": -9.341301491432491e-06,
      "longitude_deg": 153.49578855887583,
      "height_km": 476.02765765415006,
      "semi_major_axis_km": 6853.328699507764,
      "eccentricity": 0.0001333,
      "inclination_deg": 53.1609,
      "raan_deg": 9.4552,
      "arg_perigee_deg": 86.0999,
      "mean_anomaly_deg": 274.0154,
      "mean_motion_rev_day": 15.30207827
    },
    {
      "epoch": "2026-03-30T05:02:02.372352Z",
      "apogee_km": 475.9362076154621,
      "perigee_km": 474.48439452320326,
      "latitude_deg": -3.7690719961103274e-06,
      "longitude_deg": 105.73494850556145,
      "height_km": 475.8659723872291,
      "semi_major_axis_km": 6853.347301069332,
      "eccentricity": 0.00010592,
      "inclination_deg": 53.1604,
      "raan_deg": 8.8496,
      "arg_perigee_deg": 70.4575,
      "mean_anomaly_deg": 289.654,
      "mean_motion_rev_day": 15.30201597
    },
    {
      "epoch": "2026-03-30T11:18:15.333120Z",
      "apogee_km": 476.0351835575975,
      "perigee_km": 474.40901851010403,
      "latitude_deg": -4.763726701280408e-06,
      "longitude_deg": 10.208434155860862,
      "height_km": 475.8711264065793,
      "semi_major_axis_km": 6853.3591010338505,
      "eccentricity": 0.00011864,
      "inclination_deg": 53.1598,
      "raan_deg": 7.6346,
      "arg_perigee_deg": 72.1505,
      "mean_anomaly_deg": 287.9625,
      "mean_motion_rev_day": 15.30197645
    },
    {
      "epoch": "2026-03-31T10:49:03.181728Z",
      "apogee_km": 476.10742468559874,
      "perigee_km": 474.3155481903359,
      "latitude_deg": 6.15652721285661e-05,
      "longitude_deg": 11.994359057463337,
      "height_km": 476.0546409628194,
      "semi_major_axis_km": 6853.348486437967,
      "eccentricity": 0.00013073,
      "inclination_deg": 53.1604,
      "raan_deg": 3.0855,
      "arg_perigee_deg": 86.4864,
      "mean_anomaly_deg": 273.6287,
      "mean_motion_rev_day": 15.302012
    },
    {
      "epoch": "2026-04-01T00:55:31.932192Z",
      "apogee_km": 476.2522870933535,
      "perigee_km": 474.0297690288535,
      "latitude_deg": -2.130834800505492e-05,
      "longitude_deg": 157.06921012594708,
      "height_km": 476.5335284298948,
      "semi_major_axis_km": 6853.278028061103,
      "eccentricity": 0.00016215,
      "inclination_deg": 53.1608,
      "raan_deg": 0.3596,
      "arg_perigee_deg": 116.4278,
      "mean_anomaly_deg": 243.6889,
      "mean_motion_rev_day": 15.30224798
    },
    {
      "epoch": "2026-04-02T17:40:54.665184Z",
      "apogee_km": 476.1700827955392,
      "perigee_km": 474.0729856840617,
      "latitude_deg": 2.0674898746469112e-05,
      "longitude_deg": -103.83878006504032,
      "height_km": 476.1909117351207,
      "semi_major_axis_km": 6853.2585342398,
      "eccentricity": 0.000153,
      "inclination_deg": 53.1602,
      "raan_deg": 352.4701,
      "arg_perigee_deg": 99.4195,
      "mean_anomaly_deg": 260.6979,
      "mean_motion_rev_day": 15.30231327
    },
    {
      "epoch": "2026-04-02T22:23:04.066944Z",
      "apogee_km": 475.97644627113004,
      "perigee_km": 474.3782533647527,
      "latitude_deg": 1.432529007379653e-05,
      "longitude_deg": -175.48138805478266,
      "height_km": 475.8946279389164,
      "semi_major_axis_km": 6853.314349817942,
      "eccentricity": 0.0001166,
      "inclination_deg": 53.1602,
      "raan_deg": 351.5598,
      "arg_perigee_deg": 76.908,
      "mean_anomaly_deg": 283.2051,
      "mean_motion_rev_day": 15.30212633
    }
  ]
}